start=new Date('2021-08-24T00:00:00.000Z').valueOf();
sats=[{"OBJECT_NAME":"STARLINK-1441","RA_OF_ASC_NODE":"314.5348","GP_ID":"183328445","MEAN_MOTION_DOT":"-0.00000818","OBJECT_ID":"2020-035B","CLASSIFICATION_TYPE":"U","CENTER_NAME":"EARTH","FILE":"3102124","MEAN_MOTION_DDOT":"0.0000000000000","COUNTRY_CODE":"US","OBJECT_TYPE":"PAYLOAD","LAUNCH_DATE":"2020-06-04","TLE_LINE1":"1 45658U 20035B   21235.60838763 -.00000818  00000-0 -36059-4 0  9998","MEAN_ANOMALY":"248.5459","RCS_SIZE":"LARGE","PERIOD":"95.592","PERIAPSIS":"546.540","SITE":"AFETR","INCLINATION":"53.0545","EPOCH":"2021-08-23T14:36:04.691232","SEMIMAJOR_AXIS":"6925.365","ELEMENT_SET_NO":"999","DECAY_DATE":null,"MEAN_MOTION":"15.06394552","TIME_SYSTEM":"UTC","ARG_OF_PERICENTER":"111.5636","MEAN_ELEMENT_THEORY":"SGP4","EPHEMERIS_TYPE":"0","BSTAR":"-0.00003605900000","APOAPSIS":"547.921","NORAD_CAT_ID":"45658","REF_FRAME":"TEME","TLE_LINE2":"2 45658  53.0545 314.5348 0000997 111.5636 248.5459 15.06394552 68672","ECCENTRICITY":"0.00009970","REV_AT_EPOCH":"6867"},{"NORAD_CAT_ID":"45659","EPHEMERIS_TYPE":"0","MEAN_ELEMENT_THEORY":"SGP4","ARG_OF_PERICENTER":"115.0598","APOAPSIS":"547.856","BSTAR":"0.00007024000000","ECCENTRICITY":"0.00009150","REV_AT_EPOCH":"6862","REF_FRAME":"TEME","TLE_LINE2":"2 45659  53.0554 315.6856 0000915 115.0598 245.0486 15.06397126 68622","PERIAPSIS":"546.589","SITE":"AFETR","PERIOD":"95.592","RCS_SIZE":"LARGE","MEAN_MOTION":"15.06397126","DECAY_DATE":null,"ELEMENT_SET_NO":"999","TIME_SYSTEM":"UTC","INCLINATION":"53.0554","SEMIMAJOR_AXIS":"6925.357","EPOCH":"2021-08-23T08:24:32.027616","MEAN_MOTION_DDOT":"0.0000000000000","FILE":"3101910","COUNTRY_CODE":"US","CENTER_NAME":"EARTH","MEAN_ANOMALY":"245.0486","LAUNCH_DATE":"2020-06-04","OBJECT_TYPE":"PAYLOAD","TLE_LINE1":"1 45659U 20035C   21235.35037069  .00000765  00000-0  70240-4 0  9990","GP_ID":"183300750","MEAN_MOTION_DOT":"0.00000765","OBJECT_NAME":"STARLINK-1442","RA_OF_ASC_NODE":"315.6856","CLASSIFICATION_TYPE":"U","OBJECT_ID":"2020-035C"},{"SEMIMAJOR_AXIS":"6925.340","EPOCH":"2021-08-23T16:27:32.152320","INCLINATION":"53.0566","TIME_SYSTEM":"UTC","DECAY_DATE":null,"MEAN_MOTION":"15.06402838","ELEMENT_SET_NO":"999","PERIOD":"95.592","RCS_SIZE":"LARGE","SITE":"AFETR","PERIAPSIS":"546.586","TLE_LINE2":"2 45660  53.0566 314.1844 0000893  99.5101 260.5989 15.06402838 68682","REF_FRAME":"TEME","REV_AT_EPOCH":"6868","ECCENTRICITY":"0.00008930","APOAPSIS":"547.823","BSTAR":"0.00012254000000","EPHEMERIS_TYPE":"0","ARG_OF_PERICENTER":"99.5101","MEAN_ELEMENT_THEORY":"SGP4","NORAD_CAT_ID":"45660","OBJECT_ID":"2020-035D","CLASSIFICATION_TYPE":"U","RA_OF_ASC_NODE":"314.1844","OBJECT_NAME":"STARLINK-1443","MEAN_MOTION_DOT":"0.00001545","GP_ID":"183328947","TLE_LINE1":"1 45660U 20035D   21235.68578880  .00001545  00000-0  12254-3 0  9996","LAUNCH_DATE":"2020-06-04","OBJECT_TYPE":"PAYLOAD","MEAN_ANOMALY":"260.5989","CENTER_NAME":"EARTH","COUNTRY_CODE":"US","MEAN_MOTION_DDOT":"0.0000000000000","FILE":"3102124"},{"ARG_OF_PERICENTER":"132.0911","MEAN_ELEMENT_THEORY":"SGP4","EPHEMERIS_TYPE":"0","BSTAR":"-0.00007026900000","APOAPSIS":"547.819","NORAD_CAT_ID":"45661","REF_FRAME":"TEME","TLE_LINE2":"2 45661  53.0557 314.1043 0000850 132.0911 228.0150 15.06394574 68685","ECCENTRICITY":"0.00008500","REV_AT_EPOCH":"6868","RCS_SIZE":"LARGE","PERIOD":"95.592","PERIAPSIS":"546.642","SITE":"AFETR","INCLINATION":"53.0557","EPOCH":"2021-08-23T16:54:04.579488","SEMIMAJOR_AXIS":"6925.365","ELEMENT_SET_NO":"999","MEAN_MOTION":"15.06394574","DECAY_DATE":null,"TIME_SYSTEM":"UTC","CENTER_NAME":"EARTH","FILE":"3102124","MEAN_MOTION_DDOT":"0.0000000000000","COUNTRY_CODE":"US","OBJECT_TYPE":"PAYLOAD","LAUNCH_DATE":"2020-06-04","TLE_LINE1":"1 45661U 20035E   21235.70421967 -.00001327  00000-0 -70269-4 0  9994","MEAN_ANOMALY":"228.0150","OBJECT_NAME":"STARLINK-1444","RA_OF_ASC_NODE":"314.1043","GP_ID":"183328196","MEAN_MOTION_DOT":"-0.00001327","OBJECT_ID":"2020-035E","CLASSIFICATION_TYPE":"U"},{"OBJECT_ID":"2020-035F","CLASSIFICATION_TYPE":"U","RA_OF_ASC_NODE":"313.1421","OBJECT_NAME":"STARLINK-1445","MEAN_MOTION_DOT":"-0.00000578","GP_ID":"183327945","TLE_LINE1":"1 45662U 20035F   21235.91801121 -.00000578  00000-0 -19968-4 0  9998","OBJECT_TYPE":"PAYLOAD","LAUNCH_DATE":"2020-06-04","MEAN_ANOMALY":"236.9864","CENTER_NAME":"EARTH","COUNTRY_CODE":"US","FILE":"3102124","MEAN_MOTION_DDOT":"0.0000000000000","EPOCH":"2021-08-23T22:01:56.168544","SEMIMAJOR_AXIS":"6925.379","INCLINATION":"53.0559","TIME_SYSTEM":"UTC","ELEMENT_SET_NO":"999","MEAN_MOTION":"15.06390049","DECAY_DATE":null,"RCS_SIZE":"LARGE","PERIOD":"95.593","SITE":"AFETR","PERIAPSIS":"546.853","TLE_LINE2":"2 45662  53.0559 313.1421 0000564 123.1179 236.9864 15.06390049 68713","REF_FRAME":"TEME","REV_AT_EPOCH":"6871","ECCENTRICITY":"0.00005640","BSTAR":"-0.00001996800000","APOAPSIS":"547.635","ARG_OF_PERICENTER":"123.1179","MEAN_ELEMENT_THEORY":"SGP4","EPHEMERIS_TYPE":"0","NORAD_CAT_ID":"45662"},{"NORAD_CAT_ID":"45663","APOAPSIS":"547.777","BSTAR":"0.00008585300000","EPHEMERIS_TYPE":"0","ARG_OF_PERICENTER":"105.0582","MEAN_ELEMENT_THEORY":"SGP4","REV_AT_EPOCH":"6868","ECCENTRICITY":"0.00008060","TLE_LINE2":"2 45663  53.0545 314.0225 0000806 105.0582 255.0496 15.06398125 68689","REF_FRAME":"TEME","SITE":"AFETR","PERIAPSIS":"546.661","PERIOD":"95.592","RCS_SIZE":"LARGE","TIME_SYSTEM":"UTC","DECAY_DATE":null,"MEAN_MOTION":"15.06398125","ELEMENT_SET_NO":"999","SEMIMAJOR_AXIS":"6925.354","EPOCH":"2021-08-23T17:20:36.333600","INCLINATION":"53.0545","COUNTRY_CODE":"US","MEAN_MOTION_DDOT":"0.0000000000000","FILE":"3102124","CENTER_NAME":"EARTH","MEAN_ANOMALY":"255.0496","TLE_LINE1":"1 45663U 20035G   21235.72264275  .00000998  00000-0  85853-4 0  9991","LAUNCH_DATE":"2020-06-04","OBJECT_TYPE":"PAYLOAD","MEAN_MOTION_DOT":"0.00000998","GP_ID":"183329197","RA_OF_ASC_NODE":"314.0225","OBJECT_NAME":"STARLINK-1446","CLASSIFICATION_TYPE":"U","OBJECT_ID":"2020-035G"},{"CENTER_NAME":"EARTH","COUNTRY_CODE":"US","FILE":"3102124","MEAN_MOTION_DDOT":"0.0000000000000","TLE_LINE1":"1 45665U 20035J   21235.68947396  .00000736  00000-0  68306-4 0  9994","OBJECT_TYPE":"PAYLOAD","LAUNCH_DATE":"2020-06-04","MEAN_ANOMALY":"265.4899","RA_OF_ASC_NODE":"314.1710","OBJECT_NAME":"STARLINK-1448","MEAN_MOTION_DOT":"0.00000736","GP_ID":"183329448","OBJECT_ID":"2020-035J","CLASSIFICATION_TYPE":"U","BSTAR":"0.00006830600000","APOAPSIS":"547.866","MEAN_ELEMENT_THEORY":"SGP4","ARG_OF_PERICENTER":"94.6197","EPHEMERIS_TYPE":"0","NORAD_CAT_ID":"45665","TLE_LINE2":"2 45665  53.0542 314.1710 0000934  94.6197 265.4899 15.06398072 68677","REF_FRAME":"TEME","REV_AT_EPOCH":"6867","ECCENTRICITY":"0.00009340","RCS_SIZE":"LARGE","PERIOD":"95.592","SITE":"AFETR","PERIAPSIS":"546.573","EPOCH":"2021-08-23T16:32:50.550144","SEMIMAJOR_AXIS":"6925.354","INCLINATION":"53.0542","TIME_SYSTEM":"UTC","ELEMENT_SET_NO":"999","MEAN_MOTION":"15.06398072","DECAY_DATE":null},{"ECCENTRICITY":"0.00009740","REV_AT_EPOCH":"6867","REF_FRAME":"TEME","TLE_LINE2":"2 45666  53.0554 314.1350 0000974 100.4769 259.6330 15.06403161 68677","NORAD_CAT_ID":"45666","ARG_OF_PERICENTER":"100.4769","MEAN_ELEMENT_THEORY":"SGP4","EPHEMERIS_TYPE":"0","BSTAR":"0.00006215700000","APOAPSIS":"547.878","ELEMENT_SET_NO":"999","DECAY_DATE":null,"MEAN_MOTION":"15.06403161","TIME_SYSTEM":"UTC","INCLINATION":"53.0554","EPOCH":"2021-08-23T16:42:05.937120","SEMIMAJOR_AXIS":"6925.339","PERIAPSIS":"546.529","SITE":"AFETR","RCS_SIZE":"LARGE","PERIOD":"95.592","MEAN_ANOMALY":"259.6330","OBJECT_TYPE":"PAYLOAD","LAUNCH_DATE":"2020-06-04","TLE_LINE1":"1 45666U 20035K   21235.69590205  .00000645  00000-0  62157-4 0  9996","FILE":"3102124","MEAN_MOTION_DDOT":"0.0000000000000","COUNTRY_CODE":"US","CENTER_NAME":"EARTH","CLASSIFICATION_TYPE":"U","OBJECT_ID":"2020-035K","GP_ID":"183327696","MEAN_MOTION_DOT":"0.00000645","OBJECT_NAME":"STARLINK-1449","RA_OF_ASC_NODE":"314.1350"},{"RCS_SIZE":"LARGE","PERIOD":"95.592","SITE":"AFETR","PERIAPSIS":"546.557","EPOCH":"2021-08-23T16:38:09.046464","SEMIMAJOR_AXIS":"6925.338","INCLINATION":"53.0544","TIME_SYSTEM":"UTC","ELEMENT_SET_NO":"999","DECAY_DATE":null,"MEAN_MOTION":"15.06403329","BSTAR":"0.00006772800000","APOAPSIS":"547.849","MEAN_ELEMENT_THEORY":"SGP4","ARG_OF_PERICENTER":"106.8292","EPHEMERIS_TYPE":"0","NORAD_CAT_ID":"45667","TLE_LINE2":"2 45667  53.0544 314.1548 0000933 106.8292 253.2799 15.06403329 68677","REF_FRAME":"TEME","REV_AT_EPOCH":"6867","ECCENTRICITY":"0.00009330","RA_OF_ASC_NODE":"314.1548","OBJECT_NAME":"STARLINK-1450","MEAN_MOTION_DOT":"0.00000728","GP_ID":"183328446","OBJECT_ID":"2020-035L","CLASSIFICATION_TYPE":"U","CENTER_NAME":"EARTH","COUNTRY_CODE":"US","FILE":"3102124","MEAN_MOTION_DDOT":"0.0000000000000","TLE_LINE1":"1 45667U 20035L   21235.69316026  .00000728  00000-0  67728-4 0  9995","OBJECT_TYPE":"PAYLOAD","LAUNCH_DATE":"2020-06-04","MEAN_ANOMALY":"253.2799"},{"OBJECT_ID":"2020-035M","CLASSIFICATION_TYPE":"U","OBJECT_NAME":"STARLINK-1451","RA_OF_ASC_NODE":"313.9722","GP_ID":"183328697","MEAN_MOTION_DOT":"-0.00000752","OBJECT_TYPE":"PAYLOAD","LAUNCH_DATE":"2020-06-04","TLE_LINE1":"1 45668U 20035M   21235.73370803 -.00000752  00000-0 -31628-4 0  9993","MEAN_ANOMALY":"264.6318","CENTER_NAME":"EARTH","FILE":"3102124","MEAN_MOTION_DDOT":"0.0000000000000","COUNTRY_CODE":"US","INCLINATION":"53.0558","EPOCH":"2021-08-23T17:36:32.373792","SEMIMAJOR_AXIS":"6925.362","ELEMENT_SET_NO":"999","DECAY_DATE":null,"MEAN_MOTION":"15.06395465","TIME_SYSTEM":"UTC","RCS_SIZE":"LARGE","PERIOD":"95.592","PERIAPSIS":"546.655","SITE":"AFETR","REF_FRAME":"TEME","TLE_LINE2":"2 45668  53.0558 313.9722 0000826  95.4765 264.6318 15.06395465 68699","ECCENTRICITY":"0.00008260","REV_AT_EPOCH":"6869","ARG_OF_PERICENTER":"95.4765","MEAN_ELEMENT_THEORY":"SGP4","EPHEMERIS_TYPE":"0","BSTAR":"-0.00003162800000","APOAPSIS":"547.799","NORAD_CAT_ID":"45668"}];
